NORAD_CAT_ID,OBJECT_NAME,OBJECT_TYPE,EPOCH,MEAN_MOTION,ECCENTRICITY,INCLINATION,RA_OF_ASC_NODE,ARG_OF_PERICENTER,MEAN_ANOMALY,BSTAR,MEAN_MOTION_DOT,MEAN_MOTION_DDOT,TLE_LINE0,TLE_LINE1,TLE_LINE2,SEMIMAJOR_AXIS,PERIOD,APOGEE,PERIGEE,DECAYED
53732.0,STARLINK-4661,PAYLOAD,2024-03-07 01:58:49,15.08839088,0.0001106,53.2169,303.0047,89.0579,271.054,6.2886e-05,7.13e-06,0.0,0 STARLINK-4661,1 53732U 22107AJ  24067.08252117  .00000713  00000-0  62886-4 0  9992,2 53732  53.2169 303.0047 0001106  89.0579 271.0540 15.08839088 83359,6917.883,95.438,540.513,538.983,0.0
53732.0,STARLINK-4661,PAYLOAD,2024-03-07 08:20:22,15.08837781,0.0001102,53.2164,301.815,88.4478,271.664,6.3565e-05,7.24e-06,0.0,0 STARLINK-4661,1 53732U 22107AJ  24067.34748322  .00000724  00000-0  63565-4 0  9996,2 53732  53.2164 301.8150 0001102  88.4478 271.6640 15.08837781 83997,6917.887,95.438,540.515,538.99,0.0
53732.0,STARLINK-4661,PAYLOAD,2024-03-08 00:14:14,15.08836015,0.0001243,53.2177,298.8438,99.7736,260.3397,0.00011544,1.55e-05,0.0,0 STARLINK-4661,1 53732U 22107AJ  24068.00988774  .00001550  00000-0  11544-3 0  9994,2 53732  53.2177 298.8438 0001243  99.7736 260.3397 15.08836015 83491,6917.893,95.438,540.617,538.898,0.0
53732.0,STARLINK-4661,PAYLOAD,2024-03-08 08:11:09,15.08845641,0.0001666,53.2174,297.3555,139.9777,220.1338,1.8474e-05,6e-08,0.0,0 STARLINK-4661,1 53732U 22107AJ  24068.34108184  .00000006  00000-0  18474-4 0  9995,2 53732  53.2174 297.3555 0001666 139.9777 220.1338 15.08845641 83543,6917.863,95.437,540.881,538.576,0.0
53732.0,STARLINK-4661,PAYLOAD,2024-03-09 08:01:56,15.08847035,6.26e-05,53.2177,292.8947,103.4539,256.6523,7.6663e-05,9.33e-06,0.0,0 STARLINK-4661,1 53732U 22107AJ  24069.33467980  .00000933  00000-0  76663-4 0  9990,2 53732  53.2177 292.8947 0000626 103.4539 256.6523 15.08847035 84290,6917.859,95.437,540.157,539.291,0.0
53732.0,STARLINK-4661,PAYLOAD,2024-03-09 23:55:47,15.08843208,7.17e-05,53.2172,289.9212,116.0553,244.0514,8.1641e-05,1.012e-05,0.0,0 STARLINK-4661,1 53732U 22107AJ  24069.99708114  .00001012  00000-0  81641-4 0  9990,2 53732  53.2172 289.9212 0000717 116.0553 244.0514 15.08843208 83797,6917.871,95.437,540.232,539.24,0.0
53732.0,STARLINK-4661,PAYLOAD,2024-03-10 14:14:16,15.08841227,0.000108,53.2106,287.2424,94.0799,266.0316,3.8816e-05,3.3e-06,0.0,0 STARLINK-4661,1 53732U 22107AJ  24070.59324385  .00000330  00000-0  38816-4 0  9990,2 53732  53.2106 287.2424 0001080  94.0799 266.0316 15.08841227 84481,6917.877,95.437,540.489,538.995,0.0
53732.0,STARLINK-4661,PAYLOAD,2024-03-10 20:35:48,15.0883816,0.0001153,53.2139,286.0535,97.8489,262.2634,3.1775e-05,2.18e-06,0.0,0 STARLINK-4661,1 53732U 22107AJ  24070.85820565  .00000218  00000-0  31775-4 0  9992,2 53732  53.2139 286.0535 0001153  97.8489 262.2634 15.08838160 83926,6917.886,95.438,540.549,538.953,0.0
53732.0,STARLINK-4661,PAYLOAD,2024-03-11 07:43:30,15.08839893,0.0001184,53.2141,283.9715,97.6885,262.4241,4.1646e-05,3.75e-06,0.0,0 STARLINK-4661,1 53732U 22107AJ  24071.32188442  .00000375  00000-0  41646-4 0  9998,2 53732  53.2141 283.9715 0001184  97.6885 262.4241 15.08839893 84591,6917.881,95.438,540.565,538.927,0.0
53732.0,STARLINK-4661,PAYLOAD,2024-03-12 20:17:23,15.08835995,0.000131,53.2153,277.1328,89.9551,270.1591,0.00012794,1.749e-05,0.0,0 STARLINK-4661,1 53732U 22107AJ  24072.84540657  .00001749  00000-0  12794-3 0  9993,2 53732  53.2153 277.1328 0001310  89.9551 270.1591 15.08835995 84823,6917.893,95.438,540.664,538.851,0.0
53732.0,STARLINK-4661,PAYLOAD,2024-03-12 23:28:09,15.08841267,0.0001419,53.2153,276.5376,88.924,271.1914,7.3883e-05,8.88e-06,0.0,0 STARLINK-4661,1 53732U 22107AJ  24072.97788427  .00000888  00000-0  73883-4 0  9996,2 53732  53.2153 276.5376 0001419  88.9240 271.1914 15.08841267 84248,6917.877,95.437,540.723,538.76,0.0
53732.0,STARLINK-4661,PAYLOAD,2024-03-14 05:40:29,15.08837633,0.000137,53.2149,270.8868,86.7334,273.3814,4.7988e-06,-2.12e-06,0.0,0 STARLINK-4661,1 53732U 22107AJ  24074.23644879 -.00000212  00000-0  47988-5 0  9999,2 53732  53.2149 270.8868 0001370  86.7334 273.3814 15.08837633 85035,6917.888,95.438,540.7,538.805,0.0
53732.0,STARLINK-4661,PAYLOAD,2024-03-14 13:37:25,15.08836357,0.0001441,53.2142,269.4014,81.8023,278.3133,3.4117e-05,2.55e-06,0.0,0 STARLINK-4661,1 53732U 22107AJ  24074.56765123  .00000255  00000-0  34117-4 0  9996,2 53732  53.2142 269.4014 0001441  81.8023 278.3133 15.08836357 84484,6917.892,95.438,540.753,538.76,0.0
53732.0,STARLINK-4661,PAYLOAD,2024-03-14 18:23:33,15.08842988,0.000146,53.2161,268.5081,99.7492,260.3665,5.6264e-05,6.08e-06,0.0,0 STARLINK-4661,1 53732U 22107AJ  24074.76636514  .00000608  00000-0  56264-4 0  9998,2 53732  53.2161 268.5081 0001460  99.7492 260.3665 15.08842988 84510,6917.871,95.437,540.746,538.726,0.0
53732.0,STARLINK-4661,PAYLOAD,2024-03-15 13:28:12,15.08830799,8.54e-05,53.2144,264.9413,82.2931,277.8158,0.00011456,1.536e-05,0.0,0 STARLINK-4661,1 53732U 22107AJ  24075.56125041  .00001536  00000-0  11456-3 0  9999,2 53732  53.2144 264.9413 0000854  82.2931 277.8158 15.08830799 84631,6917.909,95.438,540.364,539.183,0.0
53732.0,STARLINK-4661,PAYLOAD,2024-03-15 21:25:07,15.08833312,9.91e-05,53.2152,263.4546,88.3593,271.7513,0.00011548,1.55e-05,0.0,0 STARLINK-4661,1 53732U 22107AJ  24075.89245095  .00001550  00000-0  11548-3 0  9995,2 53732  53.2152 263.4546 0000991  88.3593 271.7513 15.08833312 85288,6917.901,95.438,540.451,539.08,0.0
53732.0,STARLINK-4661,PAYLOAD,2024-03-16 19:40:32,15.08836876,0.0001459,53.2172,259.2917,88.7369,271.3791,2.892e-05,1.72e-06,0.0,0 STARLINK-4661,1 53732U 22107AJ  24076.81981697  .00000172  00000-0  28920-4 0  9995,2 53732  53.2172 259.2917 0001459  88.7369 271.3791 15.08836876 84821,6917.89,95.438,540.764,538.746,0.0
53732.0,STARLINK-4661,PAYLOAD,2024-03-16 21:15:55,15.08839187,0.0001475,53.2175,258.994,93.5453,266.5708,4.3474e-05,4.04e-06,0.0,0 STARLINK-4661,1 53732U 22107AJ  24076.88605492  .00000404  00000-0  43474-4 0  9997,2 53732  53.2175 258.9940 0001475  93.5453 266.5708 15.08839187 85432,6917.883,95.438,540.768,538.727,0.0
53732.0,STARLINK-4661,PAYLOAD,2024-03-17 11:34:23,15.08838071,0.0001441,53.2172,256.3167,95.8436,264.272,6.9038e-05,8.11e-06,0.0,0 STARLINK-4661,1 53732U 22107AJ  24077.48221529  .00000811  00000-0  69038-4 0  9995,2 53732  53.2172 256.3167 0001441  95.8436 264.2720 15.08838071 85521,6917.886,95.438,540.748,538.754,0.0
53732.0,STARLINK-4661,PAYLOAD,2024-03-17 19:31:18,15.08843305,0.0001399,53.2168,254.831,94.8034,265.3118,0.00010164,1.33e-05,0.0,0 STARLINK-4661,1 53732U 22107AJ  24077.81341085  .00001330  00000-0  10164-3 0  9994,2 53732  53.2168 254.8310 0001399  94.8034 265.3118 15.08843305 84971,6917.87,95.437,540.703,538.767,0.0
53732.0,STARLINK-4661,PAYLOAD,2024-03-19 11:15:57,15.08845418,0.0001373,53.2169,247.3969,86.56,273.5549,2.8741e-05,1.7e-06,0.0,0 STARLINK-4661,1 53732U 22107AJ  24079.46941089  .00000170  00000-0  28741-4 0  9999,2 53732  53.2169 247.3969 0001373  86.5600 273.5549 15.08845418 85223,6917.864,95.437,540.679,538.779,0.0
53732.0,STARLINK-4661,PAYLOAD,2024-03-20 11:06:44,15.08839838,0.0001431,53.2173,242.9349,96.7614,263.3541,-5.9567e-05,-1.236e-05,0.0,0 STARLINK-4661,1 53732U 22107AJ  24080.46301914 -.00001236  00000-0 -59567-4 0  9994,2 53732  53.2173 242.9349 0001431  96.7614 263.3541 15.08839838 85378,6917.881,95.438,540.736,538.756,0.0
53732.0,STARLINK-4661,PAYLOAD,2024-03-20 14:17:31,15.0883854,0.0001395,53.2174,242.3392,110.4994,249.6148,-9.7423e-05,-1.838e-05,0.0,0 STARLINK-4661,1 53732U 22107AJ  24080.59550153 -.00001838  00000-0 -97423-4 0  9990,2 53732  53.2174 242.3392 0001395 110.4994 249.6148 15.08838540 85992,6917.885,95.438,540.715,538.785,0.0
53732.0,STARLINK-4661,PAYLOAD,2024-03-20 17:28:17,15.08838219,0.000136,53.2171,241.7444,103.4593,256.655,-0.00011765,-2.16e-05,0.0,0 STARLINK-4661,1 53732U 22107AJ  24080.72798306 -.00002160  00000-0 -11765-3 0  9992,2 53732  53.2171 241.7444 0001360 103.4593 256.6550 15.08838219 86011,6917.886,95.438,540.692,538.81,0.0
53732.0,STARLINK-4661,PAYLOAD,2024-03-21 14:08:17,15.0884687,0.0001312,53.2172,237.8791,101.4696,258.6444,3.2507e-06,-2.36e-06,0.0,0 STARLINK-4661,1 53732U 22107AJ  24081.58909360 -.00000236  00000-0  32507-5 0  9991,2 53732  53.2172 237.8791 0001312 101.4696 258.6444 15.08846870 86142,6917.859,95.437,540.632,538.817,0.0
53732.0,STARLINK-4661,PAYLOAD,2024-03-21 17:19:03,15.088533,0.0001371,53.2172,237.2842,100.1265,259.9882,5.3055e-05,5.57e-06,0.0,0 STARLINK-4661,1 53732U 22107AJ  24081.72156817  .00000557  00000-0  53055-4 0  9993,2 53732  53.2172 237.2842 0001371 100.1265 259.9882 15.08853300 85567,6917.84,95.437,540.653,538.756,0.0
53732.0,STARLINK-4661,PAYLOAD,2024-03-22 10:48:18,15.08837047,0.000156,53.2177,234.0175,113.4727,246.6429,0.00021955,3.208e-05,0.0,0 STARLINK-4661,1 53732U 22107AJ  24082.45021431  .00003208  00000-0  21955-3 0  9996,2 53732  53.2177 234.0175 0001560 113.4727 246.6429 15.08837047 85678,6917.889,95.438,540.834,538.675,0.0
53732.0,STARLINK-4661,PAYLOAD,2024-03-22 13:59:04,15.08843058,0.0001382,53.2171,233.4187,100.7497,259.365,0.00022481,3.292e-05,0.0,0 STARLINK-4661,1 53732U 22107AJ  24082.58269138  .00003292  00000-0  22481-3 0  9996,2 53732  53.2171 233.4187 0001382 100.7497 259.3650 15.08843058 86298,6917.871,95.437,540.692,538.78,0.0
53732.0,STARLINK-4661,PAYLOAD,2024-03-22 20:20:36,15.08854887,0.0001409,53.216,232.2249,100.4394,259.6757,0.0003409,5.144e-05,0.0,0 STARLINK-4661,1 53732U 22107AJ  24082.84764709  .00005144  00000-0  34090-3 0  9996,2 53732  53.2160 232.2249 0001409 100.4394 259.6757 15.08854887 85736,6917.835,95.437,540.675,538.725,0.0
53732.0,STARLINK-4661,PAYLOAD,2024-03-23 18:36:00,15.08851207,0.000156,53.2162,228.0655,127.2934,232.8201,0.00010371,1.363e-05,0.0,0 STARLINK-4661,1 53732U 22107AJ  24083.77500847  .00001363  00000-0  10371-3 0  9995,2 53732  53.2162 228.0655 0001560 127.2934 232.8201 15.08851207 85872,6917.846,95.437,540.79,538.632,0.0
